GSAT0101 (PRN E11)      
1 37846U 11060A   20350.20690405 -.00000083  00000-0  00000-0 0  9994
2 37846  56.7370  36.3235 0002640 305.1152  54.9248  1.70475151 56856
GSAT0102 (PRN E12)      
1 37847U 11060B   20349.02864059 -.00000080  00000-0  00000-0 0  9998
2 37847  56.7369  36.3554 0004589 293.5423 109.5316  1.70475268 56845
GSAT0103 (PRN E19)      
1 38857U 12055A   20349.66199063  .00000061  00000-0  00000-0 0  9999
2 38857  55.0095 156.8213 0001219 229.3291 130.6495  1.70473661 50888
GSAT0104 (PRN E20)      
1 38858U 12055B   20349.59639784  .00000062  00000-0  00000-0 0  9992
2 38858  55.0098 156.8225 0000493 145.8046 214.1883  1.70473607 50887
GSAT0201 (PRN E18)      
1 40128U 14050A   20349.96700010 -.00000108  00000-0  00000-0 0  9996
2 40128  50.5352 354.1742 1654096 105.2812 273.6051  1.85519358 41029
GSAT0202 (PRN E14)      
1 40129U 14050B   20350.23006554 -.00000108  00000-0  00000-0 0  9991
2 40129  50.5693 353.2068 1651636 106.1023 272.7121  1.85519999 43199
GSAT0203 (PRN E26)      
1 40544U 15017A   20349.98803769 -.00000083  00000-0  00000-0 0  9991
2 40544  56.5308  36.4382 0005321 249.2067 110.8007  1.70474980 34939
GSAT0204 (PRN E22)      
1 40545U 15017B   20350.35559292 -.00000084  00000-0  00000-0 0  9995
2 40545  56.5375  36.4447 0003632 224.3960 135.6392  1.70475134 35604
GSAT0205 (PRN E24)      
1 40889U 15045A   20350.01099019 -.00000031  00000-0  00000-0 0  9998
2 40889  56.0142 277.1284 0005290 359.2674   0.7476  1.70474462 32747
GSAT0206 (PRN E30)      
1 40890U 15045B   20349.64393129 -.00000031  00000-0  00000-0 0  9996
2 40890  56.0137 277.1349 0003801 345.3702  14.6323  1.70474448 32760
GSAT0209 (PRN E09)      
1 41174U 15079A   20349.23099177  .00000065  00000-0  00000-0 0  9996
2 41174  55.0242 156.5323 0002582 342.9596  17.0238  1.70473334 30665
GSAT0208 (PRN E08)      
1 41175U 15079B   20349.45071349  .00000063  00000-0  00000-0 0  9990
2 41175  55.0218 156.5255 0001995 356.5745   3.4143  1.70473315 31087
GSAT0211 (PRN E02)      
1 41549U 16030A   20348.98538603 -.00000032  00000-0  00000-0 0  9998
2 41549  56.1571 277.0282 0004888 322.8223  37.1536  1.70474227 28388
GSAT0210 (PRN E01)      
1 41550U 16030B   20349.86485306 -.00000031  00000-0  00000-0 0  9998
2 41550  56.1561 277.0055 0003989 299.9585  60.0170  1.70474255 28394
GSAT0207 (PRN E07)      
1 41859U 16069A   20350.69690900  .00000054  00000-0  00000-0 0  9997
2 41859  54.6826 156.8094 0001979 320.0446  39.9225  1.70473313 25307
GSAT0212 (PRN E03)      
1 41860U 16069B   20349.37720614  .00000063  00000-0  00000-0 0  9998
2 41860  54.6801 156.8447 0002217  13.8379 346.1598  1.70473287 25375
GSAT0213 (PRN E04)      
1 41861U 16069C   20349.15633170  .00000066  00000-0  00000-0 0  9998
2 41861  54.6825 156.8550 0001097 260.6381  99.3431  1.70473353 25374
GSAT0214 (PRN E05)      
1 41862U 16069D   20349.88998121  .00000059  00000-0  00000-0 0  9991
2 41862  54.6808 156.8299 0000300 282.7520  77.2320  1.70473392 25377
GSAT0215 (PRN E21)      
1 43055U 17079A   20349.79355127 -.00000031  00000-0  00000-0 0  9993
2 43055  56.1315 276.8468 0003278 299.1163  60.8658  1.70473430 18711
GSAT0216 (PRN E25)      
1 43056U 17079B   20348.91299941 -.00000032  00000-0  00000-0 0  9999
2 43056  56.1325 276.8707 0005049 290.7741  69.1815  1.70473536 18710
GSAT0217 (PRN E27)      
1 43057U 17079C   20349.71968389 -.00000031  00000-0  00000-0 0  9997
2 43057  56.1303 276.8489 0004853 302.7455  57.2223  1.70473523 18719
GSAT0218 (PRN E31)      
1 43058U 17079D   20349.93968709 -.00000030  00000-0  00000-0 0  9997
2 43058  56.1299 276.8402 0005369 286.1814  73.7755  1.70473546 18747
GSAT0221 (PRN E15)      
1 43564U 18060A   20349.83864093 -.00000082  00000-0  00000-0 0  9997
2 43564  56.9168  36.1166 0005774 263.9276  96.0717  1.70476043 14894
GSAT0222 (PRN E33)      
1 43565U 18060B   20350.05848542 -.00000082  00000-0  00000-0 0  9995
2 43565  56.9191  36.1102 0005362 269.6330  90.3705  1.70476085 14944
GSAT0219 (PRN E36)      
1 43566U 18060C   20349.69230609 -.00000081  00000-0  00000-0 0  9992
2 43566  56.9197  36.1219 0005146 264.9096  95.0967  1.70475898 14917
GSAT0220 (PRN E13)      
1 43567U 18060D   20349.91219865 -.00000082  00000-0  00000-0 0  9990
2 43567  56.9194  36.1162 0005197 265.6478  94.3579  1.70475780 14900
